     2.100          NAVIGATION                              RINEX VERSION / TYPE
fic2rin                                 04/15/2009 01:11:47 PGM / RUN BY / DATE
                                                            END OF HEADER
24 09  4 14  9 59 44.0  .181181356311D-03  .295585778076D-11  .000000000000D+00
     .170000000000D+02  .368750000000D+02  .474412618333D-08 -.101467731727D+00
     .192038714886D-05  .679172435775D-02  .955909490585D-05  .515367939758D+04
     .208784000000D+06  .931322574615D-08  .406543120210D+00 -.875443220139D-07
     .951323287233D+00  .193718750000D+03 -.643701252421D+00 -.808497962900D-08
    -.395016454021D-09  .100000000000D+01  .152700000000D+04  .000000000000D+00
     .240000000000D+01  .000000000000D+00 -.139698386192D-08  .170000000000D+02
     .201606000000D+06  .400000000000D+01
 1 09  4 14 10  0  0.0 -.855848193169D-04  .119371179608D-10  .000000000000D+00
     .106000000000D+03 -.231875000000D+02  .595131932491D-08  .233231765416D+00
    -.135041773319D-05  .322463770863D-02  .784732401371D-05  .515378852081D+04
     .208800000000D+06  .353902578354D-07 -.174550886745D+01  .372529029846D-08
     .960101582759D+00  .231593750000D+03  .897319335718D+00 -.802854870699D-08
     .430017911972D-09  .100000000000D+01  .152700000000D+04  .000000000000D+00
     .240000000000D+01  .630000000000D+02 -.116415321827D-07  .106000000000D+03
     .201606000000D+06  .400000000000D+01
 2 09  4 14 10  0  0.0  .153578352183D-03 -.227373675443D-12  .000000000000D+00
     .370000000000D+02  .374687500000D+02  .483591572101D-08 -.230527481764D+01
     .190734863281D-05  .903638510499D-02  .975281000137D-05  .515364404297D+04
     .208800000000D+06 -.232830643654D-06  .343302102059D+00 -.372529029846D-07
     .941952651789D+00  .180656250000D+03  .277869555091D+01 -.797318925819D-08
    -.459662003910D-09  .100000000000D+01  .152700000000D+04  .000000000000D+00
     .240000000000D+01  .000000000000D+00 -.172294676304D-07  .370000000000D+02
     .201606000000D+06  .400000000000D+01
 3 09  4 14 10  0  0.0  .379382167011D-03  .534328137292D-11  .000000000000D+00
     .450000000000D+02 -.118437500000D+02  .571488090487D-08 -.266253778246D+01
    -.786036252975D-06  .117785478942D-01  .586919486523D-05  .515374093437D+04
     .208800000000D+06  .199303030968D-06 -.803562690537D+00 -.195577740669D-06
     .926156316917D+00  .246093750000D+03  .896748374884D+00 -.837820612877D-08
     .521450291926D-10  .100000000000D+01  .152700000000D+04  .000000000000D+00
     .240000000000D+01  .000000000000D+00 -.419095158577D-08  .450000000000D+02
     .201606000000D+06  .400000000000D+01
 4 09  4 14 10  0  0.0 -.511934049428D-04 -.148929757415D-10  .000000000000D+00
     .540000000000D+02  .361875000000D+02  .495342061557D-08  .550490961792D+00
     .211596488953D-05  .860436435323D-02  .923313200474D-05  .515372115898D+04
     .208800000000D+06  .316649675369D-07  .361720767328D+00  .949949026108D-07
     .941168614011D+00  .187781250000D+03  .482665153992D+00 -.816105422638D-08
    -.508592613495D-09  .100000000000D+01  .152700000000D+04  .000000000000D+00
     .240000000000D+01  .000000000000D+00 -.605359673500D-08  .540000000000D+02
     .201606000000D+06  .400000000000D+01
 5 09  4 14 10  0  0.0 -.345464795828D-04 -.125055521494D-10  .000000000000D+00
     .760000000000D+02 -.234687500000D+02  .500592280249D-08  .209167415474D+00
    -.144168734550D-05  .949785963167D-02  .796094536781D-05  .515358297729D+04
     .208800000000D+06 -.596046447754D-07 -.183446818147D+01  .558793544769D-07
     .945425492035D+00  .220875000000D+03  .129924193597D+01 -.831748931396D-08
     .444661379074D-09  .100000000000D+01  .152700000000D+04  .000000000000D+00
     .685000000000D+01  .630000000000D+02 -.419095158577D-08  .760000000000D+02
     .201606000000D+06  .400000000000D+01
 7 09  4 14 10  0  0.0  .203964300454D-04 -.568434188608D-12  .000000000000D+00
     .900000000000D+01 -.943437500000D+02  .414052961254D-08  .222025736711D+01
    -.490620732307D-05  .242188642733D-02  .773184001446D-05  .515367960930D+04
     .208800000000D+06 -.111758708954D-07 -.278535357343D+01  .502914190292D-07
     .967093362726D+00  .231218750000D+03  .289731227253D+01 -.787532803902D-08
     .832177520677D-10  .100000000000D+01  .152700000000D+04  .000000000000D+00
     .240000000000D+01  .000000000000D+00 -.107102096081D-07  .900000000000D+01
     .201606000000D+06  .400000000000D+01
 8 09  4 14 10  0  0.0 -.198429450393D-03 -.170530256582D-11  .000000000000D+00
     .480000000000D+02 -.919375000000D+02  .364693762388D-08  .151428281977D+01
    -.469386577606D-05  .105144149857D-01  .822544097900D-05  .515366547394D+04
     .208800000000D+06 -.931322574615D-08 -.272591649339D+01  .171363353729D-06
     .988269998692D+00  .235968750000D+03  .298622407974D+01 -.758495880112D-08
    -.750031241812D-11  .100000000000D+01  .152700000000D+04  .000000000000D+00
     .240000000000D+01  .000000000000D+00 -.465661287308D-08  .480000000000D+02
     .201606000000D+06  .400000000000D+01
 9 09  4 14 10  0  0.0  .506825745106D-04  .204636307899D-11  .000000000000D+00
     .400000000000D+02 -.963750000000D+02  .396266506091D-08  .127322635028D+01
    -.520423054695D-05  .203523304081D-01  .730529427528D-05  .515364831161D+04
     .208800000000D+06 -.264495611191D-06 -.281965852840D+01 -.355765223503D-06
     .976041116830D+00  .251281250000D+03  .146790685960D+01 -.804569227824D-08
     .101789954246D-09  .100000000000D+01  .152700000000D+04  .000000000000D+00
     .340000000000D+01  .000000000000D+00 -.558793544769D-08  .400000000000D+02
     .201606000000D+06  .400000000000D+01
10 09  4 14 10  0  0.0 -.143311917782D-04 -.568434188608D-12  .000000000000D+00
     .810000000000D+02  .109687500000D+03  .437446792843D-08 -.142819075936D+01
     .565499067307D-05  .865245959722D-02  .583007931709D-05  .515358446884D+04
     .208800000000D+06  .167638063431D-06  .142752444407D+01 -.126659870148D-06
     .958709763961D+00  .266187500000D+03  .618772437853D+00 -.801461955536D-08
    -.142863093678D-11  .100000000000D+01  .152700000000D+04  .000000000000D+00
     .340000000000D+01  .000000000000D+00 -.279396772385D-08  .810000000000D+02
     .201606000000D+06  .400000000000D+01
11 09  4 14 10  0  0.0  .123819336295D-05 -.136424205266D-11  .000000000000D+00
     .220000000000D+02  .925000000000D+01  .619454374190D-08  .205906465014D+01
     .372529029846D-06  .927855283953D-02  .889971852303D-05  .515367930603D+04
     .208800000000D+06 -.225380063057D-06  .145468310859D+00 -.633299350739D-07
     .890062415015D+00  .171781250000D+03  .693029890380D+00 -.861214444467D-08
    -.421803284086D-09  .100000000000D+01  .152700000000D+04  .000000000000D+00
     .240000000000D+01  .000000000000D+00 -.121071934700D-07  .220000000000D+02
     .201606000000D+06  .400000000000D+01
12 09  4 14 10  0  0.0 -.294335652143D-03  .477484718431D-11  .000000000000D+00
     .600000000000D+02 -.220937500000D+02  .451947396852D-08  .232169154096D+01
    -.136718153954D-05  .335813872516D-02  .780634582043D-05  .515367861938D+04
     .208800000000D+06  .150874257088D-06 -.173368470773D+01  .521540641785D-07
     .966230501459D+00  .231468750000D+03 -.760104336139D+00 -.788497129785D-08
     .447518640948D-09  .100000000000D+01  .152700000000D+04  .000000000000D+00
     .240000000000D+01  .000000000000D+00 -.121071934700D-07  .600000000000D+02
     .201606000000D+06  .400000000000D+01
13 09  4 14 10  0  0.0  .294465105981D-03  .102318153949D-11  .000000000000D+00
     .790000000000D+02 -.249375000000D+02  .379587239904D-08 -.165388172336D+01
    -.119209289551D-05  .403440301307D-02  .265799462795D-05  .515372484016D+04
     .208800000000D+06  .391155481339D-07  .250720231883D+01  .428408384323D-07
     .995049913011D+00  .345593750000D+03  .153230159346D+01 -.793640201157D-08
    -.953611150304D-10  .100000000000D+01  .152700000000D+04  .000000000000D+00
     .240000000000D+01  .000000000000D+00 -.111758708954D-07  .790000000000D+02
     .201606000000D+06  .400000000000D+01
14 09  4 14 10  0  0.0 -.126021914184D-03  .579802872380D-11  .000000000000D+00
     .550000000000D+02 -.195312500000D+02  .381908765176D-08 -.191816415908D+01
    -.100955367088D-05  .435829930939D-02  .304356217384D-05  .515359362411D+04
     .208800000000D+06  .109896063805D-06  .248796758666D+01 -.104308128357D-06
     .988572720330D+00  .337031250000D+03 -.212888772147D+01 -.784639826255D-08
    -.960754304987D-10  .100000000000D+01  .152700000000D+04  .000000000000D+00
     .240000000000D+01  .000000000000D+00 -.931322574615D-08  .550000000000D+02
     .201606000000D+06  .400000000000D+01
15 09  4 14 10  0  0.0 -.280954875052D-03 -.432009983342D-11  .000000000000D+00
     .940000000000D+02 -.803125000000D+01  .458376236067D-08 -.166611083051D+01
    -.400468707085D-06  .143026036676D-02  .235624611378D-05  .515360580063D+04
     .208800000000D+06 -.391155481339D-07  .243685523463D+01  .763684511185D-07
     .956600676429D+00  .334875000000D+03 -.518316631431D+00 -.835463371831D-08
    -.821462788651D-11  .100000000000D+01  .152700000000D+04  .000000000000D+00
     .240000000000D+01  .000000000000D+00 -.977888703346D-08  .940000000000D+02
     .201606000000D+06  .400000000000D+01
17 09  4 14 10  0  0.0  .542332418263D-04  .159161572810D-11  .000000000000D+00
     .950000000000D+02 -.164687500000D+02  .495377777330D-08 -.128262932353D+01
    -.778585672379D-06  .441457249690D-02  .641681253910D-05  .515365734100D+04
     .208800000000D+06  .614672899246D-07 -.674263586036D+00 -.186264514923D-08
     .959710436500D+00  .255656250000D+03 -.267499553200D+01 -.802926302246D-08
    -.607168148133D-10  .100000000000D+01  .152700000000D+04  .000000000000D+00
     .240000000000D+01  .000000000000D+00 -.102445483208D-07  .950000000000D+02
     .201606000000D+06  .400000000000D+01
